{
  "schema_version": 1,
  "seed": 42,
  "age_s": 2.534128698733254e+17,
  "stars": [
    {
      "mass_kg": 9.985510979204443e+29,
      "radius_m": 400889227.48129445,
      "luminosity_w": 2.432113528611903e+25,
      "temperature_k": 3817.4917711636,
      "main_sequence_lifetime_s": 1.7670732315645555e+18,
      "orbit": null
    },
    {
      "mass_kg": 2.3551175615682886e+29,
      "radius_m": 126222920.39456184,
      "luminosity_w": 6.508919492444552e+23,
      "temperature_k": 2751.7086859897922,
      "main_sequence_lifetime_s": 6.541070117245465e+19,
      "orbit": {
        "semi_major_axis_m": 4445414927.108157,
        "eccentricity": 0.293266643636562,
        "inclination_rad": 0.03564950805102585,
        "raan_rad": 3.5647237583759273,
        "arg_periapsis_rad": 0.11943406740929241,
        "mean_anomaly_epoch_rad": 5.0101221715925846
      }
    }
  ],
  "planet_host": "Barycenter",
  "planets": [
    {
      "class": "IceGiant",
      "mass_kg": 1.4731624702836436e+26,
      "radius_m": 31642133.36766188,
      "orbit": {
        "semi_major_axis_m": 1681315256330.2139,
        "eccentricity": 0.09568315729205612,
        "inclination_rad": 0.006567703675390374,
        "raan_rad": 3.90057625424982,
        "arg_periapsis_rad": 4.786990672942328,
        "mean_anomaly_epoch_rad": 2.118042329682171
      },
      "secular": {
        "apsidal_rad_per_s": 6.870144387057583e-18,
        "nodal_rad_per_s": 0.0,
        "migration_m_per_s": 0.0
      },
      "axial_tilt_rad": 0.2999665241281527,
      "axial_precession_rad_per_s": 2.4491993622938783e-11,
      "rotation_period_s": 35020.85466756801,
      "spin_drift_s_per_s": 1.9193136777008097e-12,
      "state": "Living",
      "moons": [
        {
          "mass_kg": 2.546884261145084e+22,
          "radius_m": 1265512.5271342667,
          "orbit": {
            "semi_major_axis_m": 226664552.54319888,
            "eccentricity": 0.019374052846303717,
            "inclination_rad": 0.08839376627211015,
            "raan_rad": 6.021061635981401,
            "arg_periapsis_rad": 3.990300207679037,
            "mean_anomaly_epoch_rad": 3.335684082066925
          },
          "secular": {
            "apsidal_rad_per_s": 9.35673740797942e-13,
            "nodal_rad_per_s": -4.4555892418949614e-13,
            "migration_m_per_s": 4.624177127932524e-6
          },
          "tidally_locked": true,
          "rotation_period_s": 216235.54950828178,
          "doom_time_s": null
        },
        {
          "mass_kg": 1.6926074496531946e+22,
          "radius_m": 1104372.1887437725,
          "orbit": {
            "semi_major_axis_m": 536079446.1570318,
            "eccentricity": 0.004343112150501494,
            "inclination_rad": 0.08058773326939431,
            "raan_rad": 5.724624854558889,
            "arg_periapsis_rad": 3.8705016691732914,
            "mean_anomaly_epoch_rad": 2.939859654883885
          },
          "secular": {
            "apsidal_rad_per_s": 3.405492148647841e-12,
            "nodal_rad_per_s": -1.6216629279275433e-12,
            "migration_m_per_s": 2.700417914545368e-8
          },
          "tidally_locked": true,
          "rotation_period_s": 786494.0069928174,
          "doom_time_s": null
        },
        {
          "mass_kg": 3.8926776309403645e+22,
          "radius_m": 1457738.1682211773,
          "orbit": {
            "semi_major_axis_m": 1196290965.8586059,
            "eccentricity": 0.06767762683454205,
            "inclination_rad": 0.06123101058099391,
            "raan_rad": 4.327617556658876,
            "arg_periapsis_rad": 0.5393966596679058,
            "mean_anomaly_epoch_rad": 0.5471169643969881
          },
          "secular": {
            "apsidal_rad_per_s": 1.1368116204998735e-11,
            "nodal_rad_per_s": -5.4133886690470165e-12,
            "migration_m_per_s": 7.512439793208518e-10
          },
          "tidally_locked": true,
          "rotation_period_s": 2621844.424644675,
          "doom_time_s": null
        },
        {
          "mass_kg": 8.867801161902972e+21,
          "radius_m": 890297.924346129,
          "orbit": {
            "semi_major_axis_m": 2318222468.8178964,
            "eccentricity": 0.07385706109109226,
            "inclination_rad": 0.02686833714886953,
            "raan_rad": 5.771486162663162,
            "arg_periapsis_rad": 2.185316425980592,
            "mean_anomaly_epoch_rad": 0.922703199597082
          },
          "secular": {
            "apsidal_rad_per_s": 3.0713110516081224e-11,
            "nodal_rad_per_s": -1.462529072194344e-11,
            "migration_m_per_s": 4.498812870281695e-12
          },
          "tidally_locked": true,
          "rotation_period_s": 7072685.544519862,
          "doom_time_s": null
        },
        {
          "mass_kg": 3.266116449293791e+22,
          "radius_m": 1374908.9329164573,
          "orbit": {
            "semi_major_axis_m": 4466714833.150017,
            "eccentricity": 0.040485634228159005,
            "inclination_rad": 0.019257046612564676,
            "raan_rad": 4.277594647101173,
            "arg_periapsis_rad": 2.8799175605332907,
            "mean_anomaly_epoch_rad": 5.774972376289234
          },
          "secular": {
            "apsidal_rad_per_s": 8.215797476159837e-11,
            "nodal_rad_per_s": -3.912284512457065e-11,
            "migration_m_per_s": 4.4950187639256535e-13
          },
          "tidally_locked": false,
          "rotation_period_s": 34707.153504918424,
          "doom_time_s": null
        }
      ],
      "calendar": null
    }
  ],
  "anchor_planet": 1
}
